KUIPER-00044            
1 64505U 25134F   25267.22158330  .00007008  00000+0  94544-3 0  9994
2 64505  51.8971 262.7166 0014433  81.5501 278.7097 14.79968781 15239
KUIPER-00046            
1 64506U 25134G   25267.28289385  .00007459  00000+0  10059-2 0  9994
2 64506  51.8973 258.8108 0012767  93.4187 266.8236 14.79911253 15295
KUIPER-00047            
1 64507U 25134H   25267.31294360  .00028084  00000+0  79669-3 0  9998
2 64507  51.8617 243.6984 0012393  97.4180 262.8215 15.35938398 15506
KUIPER-00048            
1 64508U 25134J   25267.18477312  .00065748  00000+0  17068-2 0  9996
2 64508  51.8762 243.0003 0006126  80.8863 279.2818 15.38345738 15509
KUIPER-00049            
1 64509U 25134K   25268.00002315 -.00923715  00000+0 -73274-1 0  9995
2 64509  51.8860 243.1062 0007475  69.0085 343.2130 15.03064095  2992
KUIPER-00050            
1 64510U 25134L   25268.00002315 -.00636746  00000+0 -52488-1 0  9996
2 64510  51.8953 244.2236 0006704 107.7641 116.7262 15.01057239  4658
KUIPER-00051            
1 64511U 25134M   25268.00002315 -.01044415  00000+0 -64443-1 0  9998
2 64511  51.8881 242.0235 0005866  71.8086  76.8090 15.12144276  4639
KUIPER-00052            
1 64512U 25134N   25267.61863069  .00140290  00000+0  18010-2 0  9991
2 64512  51.8728 233.2755 0007679  98.0037 262.1830 15.58120016 15674
